OBJECT_NAME,OBJECT_ID,EPOCH,MEAN_MOTION,ECCENTRICITY,INCLINATION,RA_OF_ASC_NODE,ARG_OF_PERICENTER,MEAN_ANOMALY,EPHEMERIS_TYPE,CLASSIFICATION_TYPE,NORAD_CAT_ID,ELEMENT_SET_NO,REV_AT_EPOCH,BSTAR,MEAN_MOTION_DOT,MEAN_MOTION_DDOT
STARLINK-37818,2026-122E,2026-06-22T20:00:01.999872,15.51749898,.00011962,97.2851,203.4899,82.7766,218.2527,0,U,69333,999,425,-.50648751E-1,-.2656262E-1,0
STARLINK-37868,2026-122F,2026-06-22T20:00:01.999872,15.61008094,.00016799,97.2855,203.5531,72.4279,9.0688,0,U,69334,999,425,-.34533384E-1,-.2519313E-1,0
STARLINK-37877,2026-122G,2026-06-22T20:00:01.999872,15.49156494,.00016073,97.2854,203.4339,86.6405,80.5354,0,U,69335,999,425,.67264714E-3,.36622E-3,0
STARLINK-37791,2026-122H,2026-06-22T20:00:01.999872,15.51925015,.00019582,97.2857,203.5145,91.9417,259.3401,0,U,69336,999,425,-.64328779E-1,-.3360875E-1,0
STARLINK-37765,2026-122J,2026-06-22T20:00:01.999872,15.63036665,.00019755,97.2845,203.6003,74.0370,116.2316,0,U,69337,999,430,-.321017E-1,-.2533285E-1,0
STARLINK-37788,2026-122K,2026-06-22T20:00:01.999872,15.49187764,.00009378,97.2906,203.4287,68.0404,88.2752,0,U,69338,999,425,.26759551E-3,.14489E-3,0
STARLINK-37743,2026-122L,2026-06-22T20:00:01.999872,15.49499865,.0001449,97.2856,203.4993,94.3486,230.4846,0,U,69339,999,425,-.99599152E-2,-.513516E-2,0
STARLINK-37780,2026-122M,2026-06-22T20:00:01.999872,15.55596081,.00018113,97.2854,203.5406,57.2101,7.0462,0,U,69340,999,430,-.46661883E-1,-.2796897E-1,0
STARLINK-37781,2026-122N,2026-06-22T20:00:01.999872,15.49158164,.00009555,97.2859,203.4266,99.2410,50.6672,0,U,69341,999,425,.8405051E-3,.45839E-3,0
STARLINK-37782,2026-122P,2026-06-22T20:00:01.999872,15.58213240,.00019531,97.2851,203.5911,70.5536,95.4372,0,U,69342,999,425,-.37921607E-1,-.2490301E-1,0
STARLINK-37776,2026-122Q,2026-06-22T20:00:01.999872,15.57389359,.0002009,97.2850,203.5850,73.2244,79.6201,0,U,69343,999,425,-.38276137E-1,-.2443608E-1,0
STARLINK-37786,2026-122R,2026-06-22T20:00:01.999872,15.49461278,.00014437,97.2856,203.5160,89.2481,270.4088,0,U,69344,999,425,-.88454277E-2,-.458589E-2,0
STARLINK-37785,2026-122S,2026-06-22T20:00:01.999872,15.57811738,.00020785,97.2854,203.5878,71.9421,88.8941,0,U,69345,999,425,-.37876964E-1,-.2455269E-1,0
STARLINK-37773,2026-122T,2026-06-22T20:00:01.999872,15.53958543,.00015658,97.2861,203.5451,55.3178,9.6310,0,U,69346,999,430,-.44465699E-1,-.2541691E-1,0
STARLINK-37744,2026-122U,2026-06-22T20:00:01.999872,15.49202349,.00006571,97.2855,203.4373,66.3979,106.0760,0,U,69347,999,425,.81823297E-3,.44684E-3,0
STARLINK-37775,2026-122V,2026-06-22T20:00:01.999872,15.52529474,.00023472,97.2852,203.5507,86.8999,344.3089,0,U,69348,999,425,-.5726314E-1,-.3030201E-1,0
STARLINK-37777,2026-122W,2026-06-22T20:00:01.999872,15.52866132,.00025997,97.2861,203.5536,71.0863,5.1559,0,U,69349,999,425,-.58705026E-1,-.3197313E-1,0
STARLINK-37779,2026-122X,2026-06-22T20:00:01.999872,15.56941241,.00017365,97.2854,203.5797,63.0534,81.0410,0,U,69350,999,426,-.38744343E-1,-.2433422E-1,0
STARLINK-37549,2026-122Y,2026-06-22T20:00:01.999872,15.49118875,.00020186,97.2854,203.4901,86.2783,213.3869,0,U,69351,999,426,.65799585E-3,.35772E-3,0
STARLINK-37778,2026-122Z,2026-06-22T20:00:01.999872,15.49168455,.00013196,97.2858,203.5095,99.9422,244.0610,0,U,69352,999,426,.33243291E-3,.18018E-3,0
STARLINK-37651,2026-123A,2026-06-22T17:39:00.764928,15.80931901,.00012271,53.1569,214.0010,69.8596,290.2559,0,U,69353,999,291,.83760153E-3,.168334E-2,0
STARLINK-37652,2026-123B,2026-06-22T17:40:39.394848,15.80903129,.00014214,53.1571,214.0092,70.8441,289.2735,0,U,69354,999,291,.35531675E-3,.70099E-3,0
STARLINK-37593,2026-123C,2026-06-22T16:08:21.836544,15.80936827,.00012378,53.1568,214.3193,64.8939,295.2212,0,U,69355,999,290,.81354689E-3,.163423E-2,0
STARLINK-37597,2026-123D,2026-06-22T16:06:01.151424,15.80943239,.00010497,53.1571,214.3083,66.1338,293.9795,0,U,69356,999,290,.10198034E-2,.20612E-2,0
STARLINK-37598,2026-123E,2026-06-22T17:34:02.156160,15.80941518,.00017383,53.1572,213.9770,44.1579,315.9582,0,U,69357,999,291,.9729527E-3,.196381E-2,0
STARLINK-37602,2026-123F,2026-06-22T13:36:51.036768,15.75275087,.00009948,53.1591,215.0938,82.9613,277.1520,0,U,69358,999,288,.67832794E-3,.104801E-2,0
STARLINK-37600,2026-123G,2026-06-22T13:30:46.859040,15.75267641,.00011519,53.1586,215.0654,76.7369,283.3780,0,U,69359,999,288,.66947562E-3,.103374E-2,0
STARLINK-37599,2026-123H,2026-06-22T17:19:05.736288,15.80985172,.00008183,53.1572,213.9076,79.7640,280.3475,0,U,69360,999,291,.1505581E-2,.308932E-2,0
STARLINK-37039,2026-123J,2026-06-21T08:03:36.780768,15.79976015,.00034879,53.1577,220.9116,182.5598,177.5408,0,U,69361,999,269,-.2949625E-2,-.526962E-2,0
STARLINK-37040,2026-123K,2026-06-22T13:56:20.070240,15.80961350,.00011442,53.1575,214.4432,80.8107,279.3045,0,U,69362,999,289,.11031189E-2,.223662E-2,0
