STARLINK-37818          
1 69333U 26122E   26173.83335648 -.02656262  00000+0 -50649-1 0  9991
2 69333  97.2851 203.4899 0001196  82.7766 218.2527 15.51749898  4251
STARLINK-37868          
1 69334U 26122F   26173.83335648 -.02519313  00000+0 -34533-1 0  9991
2 69334  97.2855 203.5531 0001679  72.4279   9.0688 15.61008094  4252
STARLINK-37877          
1 69335U 26122G   26173.83335648  .00036622  00000+0  67265-3 0  9995
2 69335  97.2854 203.4339 0001607  86.6405  80.5354 15.49156494  4254
STARLINK-37791          
1 69336U 26122H   26173.83335648 -.03360875  00000+0 -64329-1 0  9997
2 69336  97.2857 203.5145 0001958  91.9417 259.3401 15.51925015  4250
STARLINK-37765          
1 69337U 26122J   26173.83335648 -.02533285  00000+0 -32102-1 0  9998
2 69337  97.2845 203.6003 0001975  74.0370 116.2316 15.63036665  4300
STARLINK-37788          
1 69338U 26122K   26173.83335648  .00014489  00000+0  26760-3 0  9990
2 69338  97.2906 203.4287 0000937  68.0404  88.2752 15.49187764  4256
STARLINK-37743          
1 69339U 26122L   26173.83335648 -.00513516  00000+0 -99599-2 0  9997
2 69339  97.2856 203.4993 0001449  94.3486 230.4846 15.49499865  4259
STARLINK-37780          
1 69340U 26122M   26173.83335648 -.02796897  00000+0 -46662-1 0  9998
2 69340  97.2854 203.5406 0001811  57.2101   7.0462 15.55596081  4307
STARLINK-37781          
1 69341U 26122N   26173.83335648  .00045839  00000+0  84051-3 0  9994
2 69341  97.2859 203.4266 0000955  99.2410  50.6672 15.49158164  4253
STARLINK-37782          
1 69342U 26122P   26173.83335648 -.02490301  00000+0 -37922-1 0  9990
2 69342  97.2851 203.5911 0001953  70.5536  95.4372 15.58213240  4255
STARLINK-37776          
1 69343U 26122Q   26173.83335648 -.02443608  00000+0 -38276-1 0  9992
2 69343  97.2850 203.5850 0002009  73.2244  79.6201 15.57389359  4255
STARLINK-37786          
1 69344U 26122R   26173.83335648 -.00458589  00000+0 -88454-2 0  9999
2 69344  97.2856 203.5160 0001443  89.2481 270.4088 15.49461278  4253
STARLINK-37785          
1 69345U 26122S   26173.83335648 -.02455269  00000+0 -37877-1 0  9996
2 69345  97.2854 203.5878 0002078  71.9421  88.8941 15.57811738  4253
STARLINK-37773          
1 69346U 26122T   26173.83335648 -.02541691  00000+0 -44466-1 0  9994
2 69346  97.2861 203.5451 0001565  55.3178   9.6310 15.53958543  4303
STARLINK-37744          
1 69347U 26122U   26173.83335648  .00044684  00000+0  81823-3 0  9991
2 69347  97.2855 203.4373 0000657  66.3979 106.0760 15.49202349  4257
STARLINK-37775          
1 69348U 26122V   26173.83335648 -.03030201  00000+0 -57263-1 0  9996
2 69348  97.2852 203.5507 0002347  86.8999 344.3089 15.52529474  4258
STARLINK-37777          
1 69349U 26122W   26173.83335648 -.03197313  00000+0 -58705-1 0  9997
2 69349  97.2861 203.5536 0002599  71.0863   5.1559 15.52866132  4255
STARLINK-37779          
1 69350U 26122X   26173.83335648 -.02433422  00000+0 -38744-1 0  9993
2 69350  97.2854 203.5797 0001736  63.0534  81.0410 15.56941241  4265
STARLINK-37549          
1 69351U 26122Y   26173.83335648  .00035772  00000+0  65800-3 0  9991
2 69351  97.2854 203.4901 0002018  86.2783 213.3869 15.49118875  4268
STARLINK-37778          
1 69352U 26122Z   26173.83335648  .00018018  00000+0  33243-3 0  9992
2 69352  97.2858 203.5095 0001319  99.9422 244.0610 15.49168455  4266
STARLINK-37651          
1 69353U 26123A   26173.73542552  .00168334  00000+0  83760-3 0  9993
2 69353  53.1569 214.0010 0001227  69.8596 290.2559 15.80931901  2911
STARLINK-37652          
1 69354U 26123B   26173.73656707  .00070099  00000+0  35532-3 0  9996
2 69354  53.1571 214.0092 0001421  70.8441 289.2735 15.80903129  2917
STARLINK-37593          
1 69355U 26123C   26173.67247496  .00163423  00000+0  81355-3 0  9999
2 69355  53.1568 214.3193 0001237  64.8939 295.2212 15.80936827  2906
STARLINK-37597          
1 69356U 26123D   26173.67084666  .00206120  00000+0  10198-2 0  9996
2 69356  53.1571 214.3083 0001049  66.1338 293.9795 15.80943239  2904
STARLINK-37598          
1 69357U 26123E   26173.73196940  .00196381  00000+0  97295-3 0  9994
2 69357  53.1572 213.9770 0001738  44.1579 315.9582 15.80941518  2910
STARLINK-37602          
1 69358U 26123F   26173.56725737  .00104801  00000+0  67833-3 0  9999
2 69358  53.1591 215.0938 0000994  82.9613 277.1520 15.75275087  2885
STARLINK-37600          
1 69359U 26123G   26173.56304235  .00103374  00000+0  66948-3 0  9996
2 69359  53.1586 215.0654 0001151  76.7369 283.3780 15.75267641  2884
STARLINK-37599          
1 69360U 26123H   26173.72159417  .00308932  00000+0  15056-2 0  9996
2 69360  53.1572 213.9076 0000818  79.7640 280.3475 15.80985172  2914
STARLINK-37039          
1 69361U 26123J   26172.33584237 -.00526962  00000+0 -29496-2 0  9995
2 69361  53.1577 220.9116 0003487 182.5598 177.5408 15.79976015  2695
STARLINK-37040          
1 69362U 26123K   26173.58078785  .00223662  00000+0  11031-2 0  9995
2 69362  53.1575 214.4432 0001144  80.8107 279.3045 15.80961350  2895
